0 RADUGA 6
1 11708U 80016A   13279.67312031 -.00000183  00000-0  10000-3 0    74
2 11708 014.1938 338.8474 0006007 146.4498 213.5972 01.00343821 75677
0 RADUGA 6
1 11708U 80016A   13282.66271944 -.00000196  00000-0  10000-3 0    89
2 11708 014.1922 338.8169 0005904 145.2563 214.7829 01.00343412 75700
0 RADUGA 6
1 11708U 80016A   13282.66276186  .00000000  00000-0  10000-3 0   108
2 11708 014.1913 338.8194 0005661 147.9333 212.1074 01.00339113 75709
0 RADUGA 6
1 11708U 80016A   13285.65234292 -.00000210  00000-0  10000-3 0    94
2 11708 014.1907 338.7860 0006080 143.6550 216.3827 01.00342981 75733
0 RADUGA 6
1 11708U 80016A   13287.64542992 -.00000217  00000-0  10000-3 0   103
2 11708 014.1895 338.7658 0005940 145.7893 214.2409 01.00342652 75751
0 RADUGA 6
1 11708U 80016A   13289.63853159  .00000000  00000-0  10000-3 0   125
2 11708 014.1875 338.7482 0005574 148.0010 212.0206 01.00338207 75778
0 RADUGA 6
1 11708U 80016A   13290.63505906 -.00000224  00000-0  10000-3 0   119
2 11708 014.1877 338.7350 0005941 146.8587 213.1589 01.00342134 75788
0 RADUGA 6
1 11708U 80016A   13293.62471599 -.00000226  00000-0  10000-3 0   124
2 11708 014.1860 338.7042 0005897 148.5941 211.4172 01.00341608 75819
